ADRAS-J                 
1 58992U 24034A   24297.75997173  .00008225  00000+0  72328-3 0  9999
2 58992  98.2283 276.8904 0041875 348.6051  11.4217 14.96138106 37077
